ONEWEB-0327             
1 49196U 21083L   23242.30167950  .00000074  00000+0  15578-3 0  9996
2 49196  87.9288 178.6544 0001744  67.1743 292.9574 13.18692185 96627
ONEWEB-0328             
1 49197U 21083M   23242.52806412  .00000107  00000+0  25944-3 0  9999
2 49197  87.9083 163.4776 0002090  71.2026 288.9330 13.13472463 98071
ONEWEB-0331             
1 49198U 21083N   23241.86434137  .00000037  00000+0  60328-4 0  9995
2 49198  87.9223 178.7804 0001920  71.1151 289.0189 13.18687399 96554
ONEWEB-0333             
1 49199U 21083P   23242.52278012  .00000002  00000+0 -28579-4 0  9993
2 49199  87.9085 163.4808 0002063  83.0777 277.0587 13.13472077 98080
ONEWEB-0334             
1 49200U 21083Q   23242.07610394  .00000108  00000+0  23321-3 0  9994
2 49200  87.9203 117.9994 0001949 107.3189 252.8158 13.20772375103167
ONEWEB-0335             
1 49201U 21083R   23242.28999200  .00000038  00000+0  68793-4 0  9999
2 49201  87.9082 163.5164 0002144  74.0958 286.0408 13.13466115 98064
ONEWEB-0336             
1 49202U 21083S   23242.71534780 -.00000030  00000+0 -11755-3 0  9995
2 49202  87.9086 163.4300 0001988  80.4447 279.6907 13.13470384 98121
ONEWEB-0337             
1 49203U 21083T   23242.28154080 -.00000204  00000+0 -59264-3 0  9999
2 49203  87.9085 163.5214 0002116  72.7349 287.4012 13.13470969 98061
